CSS (TIANHE)            
1 48274U 21035A   24133.13541081  .00066025  00000+0  67935-3 0  9993
2 48274  41.4684 303.3450 0003626 325.0903  34.9699 15.63920362173458
